QIANFAN-52              
1 62253U 24232S   26074.23486673  .00000089  00000+0  11923-3 0  9994
2 62253  89.0070  31.7753 0013403 289.2593  70.7108 13.51002331 80436
QIANFAN-53              
1 62254U 24232T   26074.21424371  .00000102  00000+0  14011-3 0  9997
2 62254  89.0077  31.8888 0012317 291.0133  68.9701 13.51005179 80394
QIANFAN-54              
1 62255U 24232U   26074.25543321  .00000090  00000+0  12024-3 0  9997
2 62255  89.0069  31.5551 0002431  25.5293 334.5978 13.51004670111908
QIANFAN-55              
1 62785U 25016A   26074.28153997  .00000045  00000+0  51403-4 0  9990
2 62785  88.9683  93.6293 0019458  82.5914 277.7448 13.50996882 59688
QIANFAN-56              
1 62786U 25016B   26074.29789950  .00000054  00000+0  64967-4 0  9995
2 62786  88.9656  93.4390 0018121  84.7703 275.5515 13.50998611 59730
QIANFAN-57              
1 62787U 25016C   26074.33088107  .00000053  00000+0  62951-4 0  9997
2 62787  88.9688  93.6179 0001537 108.5701 251.5617 13.50997650 59705
QIANFAN-58              
1 62788U 25016D   26074.30200435  .00000051  00000+0  59591-4 0  9999
2 62788  88.9657  93.4239 0015965  78.3134 281.9808 13.50999187 59741
QIANFAN-59              
1 62789U 25016E   26074.25273614  .00000043  00000+0  47265-4 0  9999
2 62789  88.9681  93.5248 0016369  81.6951 278.6055 13.51007585 59732
QIANFAN-60              
1 62790U 25016F   26074.28564311  .00000034  00000+0  33236-4 0  9994
2 62790  88.9662  93.4751 0017888  78.2924 282.0234 13.51009773 59728
QIANFAN-61              
1 62791U 25016G   26074.31857186  .00000039  00000+0  41054-4 0  9996
2 62791  88.9729  93.6977 0016803  77.7948 282.5084 13.51006230 59746
QIANFAN-62              
1 62792U 25016H   26074.32268979  .00000043  00000+0  47371-4 0  9997
2 62792  88.9676  93.5156 0018187  77.9435 282.3753 13.50997004 59733
QIANFAN-63              
1 62793U 25016J   26071.97752288 -.02122006  00000+0 -36135+1 0  9997
2 62793  88.9681  93.7208 0018229  96.0583 264.2645 13.49196539 59453
QIANFAN-64              
1 62794U 25016K   26074.31445336  .00000045  00000+0  50550-4 0  9997
2 62794  88.9669  93.4358 0016162  76.7328 283.5625 13.51005971 59767
QIANFAN-65              
1 62795U 25016L   26074.31022258  .00000045  00000+0  50984-4 0  9993
2 62795  88.9666  93.4590 0016030  78.2433 282.0515 13.51009234 59747
QIANFAN-66              
1 62796U 25016M   26074.26504956  .00000056  00000+0  68282-4 0  9990
2 62796  88.9685  93.4520 0017082  74.4062 285.8973 13.50997378 59783
QIANFAN-67              
1 62797U 25016N   26074.26912345  .00000054  00000+0  64029-4 0  9999
2 62797  88.9675  93.4680 0017128  80.4552 279.8534 13.50995763 59751
QIANFAN-68              
1 62798U 25016P   26074.33502580  .00000053  00000+0  63421-4 0  9998
2 62798  88.9679  93.5098 0017162  78.7502 281.5577 13.51005722 59747
