[{"OBJECT_NAME":"QIANFAN-52","OBJECT_ID":"2024-232S","EPOCH":"2026-03-15T05:38:12.485472","MEAN_MOTION":13.51002331,"ECCENTRICITY":0.00134033,"INCLINATION":89.007,"RA_OF_ASC_NODE":31.7753,"ARG_OF_PERICENTER":289.2593,"MEAN_ANOMALY":70.7108,"EPHEMERIS_TYPE":0,"CLASSIFICATION_TYPE":"U","NORAD_CAT_ID":62253,"ELEMENT_SET_NO":999,"REV_AT_EPOCH":8043,"BSTAR":0.00011922686,"MEAN_MOTION_DOT":8.9e-7,"MEAN_MOTION_DDOT":0},{"OBJECT_NAME":"QIANFAN-53","OBJECT_ID":"2024-232T","EPOCH":"2026-03-15T05:08:30.656544","MEAN_MOTION":13.51005179,"ECCENTRICITY":0.00123177,"INCLINATION":89.0077,"RA_OF_ASC_NODE":31.8888,"ARG_OF_PERICENTER":291.0133,"MEAN_ANOMALY":68.9701,"EPHEMERIS_TYPE":0,"CLASSIFICATION_TYPE":"U","NORAD_CAT_ID":62254,"ELEMENT_SET_NO":999,"REV_AT_EPOCH":8039,"BSTAR":0.00014011165,"MEAN_MOTION_DOT":1.02e-6,"MEAN_MOTION_DDOT":0},{"OBJECT_NAME":"QIANFAN-54","OBJECT_ID":"2024-232U","EPOCH":"2026-03-15T06:07:49.429344","MEAN_MOTION":13.5100467,"ECCENTRICITY":0.00024311,"INCLINATION":89.0069,"RA_OF_ASC_NODE":31.5551,"ARG_OF_PERICENTER":25.5293,"MEAN_ANOMALY":334.5978,"EPHEMERIS_TYPE":0,"CLASSIFICATION_TYPE":"U","NORAD_CAT_ID":62255,"ELEMENT_SET_NO":999,"REV_AT_EPOCH":11190,"BSTAR":0.0001202446,"MEAN_MOTION_DOT":9.0e-7,"MEAN_MOTION_DDOT":0},{"OBJECT_NAME":"QIANFAN-55","OBJECT_ID":"2025-016A","EPOCH":"2026-03-15T06:45:25.053408","MEAN_MOTION":13.50996882,"ECCENTRICITY":0.00194581,"INCLINATION":88.9683,"RA_OF_ASC_NODE":93.6293,"ARG_OF_PERICENTER":82.5914,"MEAN_ANOMALY":277.7448,"EPHEMERIS_TYPE":0,"CLASSIFICATION_TYPE":"U","NORAD_CAT_ID":62785,"ELEMENT_SET_NO":999,"REV_AT_EPOCH":5968,"BSTAR":5.1402961e-5,"MEAN_MOTION_DOT":4.5e-7,"MEAN_MOTION_DDOT":0},{"OBJECT_NAME":"QIANFAN-56","OBJECT_ID":"2025-016B","EPOCH":"2026-03-15T07:08:58.516800","MEAN_MOTION":13.50998611,"ECCENTRICITY":0.00181215,"INCLINATION":88.9656,"RA_OF_ASC_NODE":93.439,"ARG_OF_PERICENTER":84.7703,"MEAN_ANOMALY":275.5515,"EPHEMERIS_TYPE":0,"CLASSIFICATION_TYPE":"U","NORAD_CAT_ID":62786,"ELEMENT_SET_NO":999,"REV_AT_EPOCH":5973,"BSTAR":6.496714e-5,"MEAN_MOTION_DOT":5.4e-7,"MEAN_MOTION_DDOT":0},{"OBJECT_NAME":"QIANFAN-57","OBJECT_ID":"2025-016C","EPOCH":"2026-03-15T07:56:28.124448","MEAN_MOTION":13.5099765,"ECCENTRICITY":0.00015376,"INCLINATION":88.9688,"RA_OF_ASC_NODE":93.6179,"ARG_OF_PERICENTER":108.5701,"MEAN_ANOMALY":251.5617,"EPHEMERIS_TYPE":0,"CLASSIFICATION_TYPE":"U","NORAD_CAT_ID":62787,"ELEMENT_SET_NO":999,"REV_AT_EPOCH":5970,"BSTAR":6.2951489e-5,"MEAN_MOTION_DOT":5.3e-7,"MEAN_MOTION_DDOT":0},{"OBJECT_NAME":"QIANFAN-58","OBJECT_ID":"2025-016D","EPOCH":"2026-03-15T07:14:53.175840","MEAN_MOTION":13.50999187,"ECCENTRICITY":0.00159653,"INCLINATION":88.9657,"RA_OF_ASC_NODE":93.4239,"ARG_OF_PERICENTER":78.3134,"MEAN_ANOMALY":281.9808,"EPHEMERIS_TYPE":0,"CLASSIFICATION_TYPE":"U","NORAD_CAT_ID":62788,"ELEMENT_SET_NO":999,"REV_AT_EPOCH":5974,"BSTAR":5.9590543e-5,"MEAN_MOTION_DOT":5.1e-7,"MEAN_MOTION_DDOT":0},{"OBJECT_NAME":"QIANFAN-59","OBJECT_ID":"2025-016E","EPOCH":"2026-03-15T06:03:56.402496","MEAN_MOTION":13.51007585,"ECCENTRICITY":0.0016369,"INCLINATION":88.9681,"RA_OF_ASC_NODE":93.5248,"ARG_OF_PERICENTER":81.6951,"MEAN_ANOMALY":278.6055,"EPHEMERIS_TYPE":0,"CLASSIFICATION_TYPE":"U","NORAD_CAT_ID":62789,"ELEMENT_SET_NO":999,"REV_AT_EPOCH":5973,"BSTAR":4.7265197e-5,"MEAN_MOTION_DOT":4.3e-7,"MEAN_MOTION_DDOT":0},{"OBJECT_NAME":"QIANFAN-60","OBJECT_ID":"2025-016F","EPOCH":"2026-03-15T06:51:19.564704","MEAN_MOTION":13.51009773,"ECCENTRICITY":0.00178881,"INCLINATION":88.9662,"RA_OF_ASC_NODE":93.4751,"ARG_OF_PERICENTER":78.2924,"MEAN_ANOMALY":282.0234,"EPHEMERIS_TYPE":0,"CLASSIFICATION_TYPE":"U","NORAD_CAT_ID":62790,"ELEMENT_SET_NO":999,"REV_AT_EPOCH":5972,"BSTAR":3.3235915e-5,"MEAN_MOTION_DOT":3.4e-7,"MEAN_MOTION_DDOT":0},{"OBJECT_NAME":"QIANFAN-61","OBJECT_ID":"2025-016G","EPOCH":"2026-03-15T07:38:44.608704","MEAN_MOTION":13.5100623,"ECCENTRICITY":0.00168038,"INCLINATION":88.9729,"RA_OF_ASC_NODE":93.6977,"ARG_OF_PERICENTER":77.7948,"MEAN_ANOMALY":282.5084,"EPHEMERIS_TYPE":0,"CLASSIFICATION_TYPE":"U","NORAD_CAT_ID":62791,"ELEMENT_SET_NO":999,"REV_AT_EPOCH":5974,"BSTAR":4.1054086e-5,"MEAN_MOTION_DOT":3.9e-7,"MEAN_MOTION_DDOT":0},{"OBJECT_NAME":"QIANFAN-62","OBJECT_ID":"2025-016H","EPOCH":"2026-03-15T07:44:40.397856","MEAN_MOTION":13.50997004,"ECCENTRICITY":0.00181876,"INCLINATION":88.9676,"RA_OF_ASC_NODE":93.5156,"ARG_OF_PERICENTER":77.9435,"MEAN_ANOMALY":282.3753,"EPHEMERIS_TYPE":0,"CLASSIFICATION_TYPE":"U","NORAD_CAT_ID":62792,"ELEMENT_SET_NO":999,"REV_AT_EPOCH":5973,"BSTAR":4.7370596e-5,"MEAN_MOTION_DOT":4.3e-7,"MEAN_MOTION_DDOT":0},{"OBJECT_NAME":"QIANFAN-63","OBJECT_ID":"2025-016J","EPOCH":"2026-03-12T23:27:37.976832","MEAN_MOTION":13.49196539,"ECCENTRICITY":0.00182299,"INCLINATION":88.9681,"RA_OF_ASC_NODE":93.7208,"ARG_OF_PERICENTER":96.0583,"MEAN_ANOMALY":264.2645,"EPHEMERIS_TYPE":0,"CLASSIFICATION_TYPE":"U","NORAD_CAT_ID":62793,"ELEMENT_SET_NO":999,"REV_AT_EPOCH":5945,"BSTAR":-3.6135436,"MEAN_MOTION_DOT":-0.02122006,"MEAN_MOTION_DDOT":0},{"OBJECT_NAME":"QIANFAN-64","OBJECT_ID":"2025-016K","EPOCH":"2026-03-15T07:32:48.770304","MEAN_MOTION":13.51005971,"ECCENTRICITY":0.00161627,"INCLINATION":88.9669,"RA_OF_ASC_NODE":93.4358,"ARG_OF_PERICENTER":76.7328,"MEAN_ANOMALY":283.5625,"EPHEMERIS_TYPE":0,"CLASSIFICATION_TYPE":"U","NORAD_CAT_ID":62794,"ELEMENT_SET_NO":999,"REV_AT_EPOCH":5976,"BSTAR":5.0550433e-5,"MEAN_MOTION_DOT":4.5e-7,"MEAN_MOTION_DDOT":0},{"OBJECT_NAME":"QIANFAN-65","OBJECT_ID":"2025-016L","EPOCH":"2026-03-15T07:26:43.230912","MEAN_MOTION":13.51009234,"ECCENTRICITY":0.00160309,"INCLINATION":88.9666,"RA_OF_ASC_NODE":93.459,"ARG_OF_PERICENTER":78.2433,"MEAN_ANOMALY":282.0515,"EPHEMERIS_TYPE":0,"CLASSIFICATION_TYPE":"U","NORAD_CAT_ID":62795,"ELEMENT_SET_NO":999,"REV_AT_EPOCH":5974,"BSTAR":5.0983804e-5,"MEAN_MOTION_DOT":4.5e-7,"MEAN_MOTION_DDOT":0},{"OBJECT_NAME":"QIANFAN-66","OBJECT_ID":"2025-016M","EPOCH":"2026-03-15T06:21:40.281984","MEAN_MOTION":13.50997378,"ECCENTRICITY":0.00170827,"INCLINATION":88.9685,"RA_OF_ASC_NODE":93.452,"ARG_OF_PERICENTER":74.4062,"MEAN_ANOMALY":285.8973,"EPHEMERIS_TYPE":0,"CLASSIFICATION_TYPE":"U","NORAD_CAT_ID":62796,"ELEMENT_SET_NO":999,"REV_AT_EPOCH":5978,"BSTAR":6.8282103e-5,"MEAN_MOTION_DOT":5.6e-7,"MEAN_MOTION_DDOT":0},{"OBJECT_NAME":"QIANFAN-67","OBJECT_ID":"2025-016N","EPOCH":"2026-03-15T06:27:32.266080","MEAN_MOTION":13.50995763,"ECCENTRICITY":0.00171286,"INCLINATION":88.9675,"RA_OF_ASC_NODE":93.468,"ARG_OF_PERICENTER":80.4552,"MEAN_ANOMALY":279.8534,"EPHEMERIS_TYPE":0,"CLASSIFICATION_TYPE":"U","NORAD_CAT_ID":62797,"ELEMENT_SET_NO":999,"REV_AT_EPOCH":5975,"BSTAR":6.4028575e-5,"MEAN_MOTION_DOT":5.4e-7,"MEAN_MOTION_DDOT":0},{"OBJECT_NAME":"QIANFAN-68","OBJECT_ID":"2025-016P","EPOCH":"2026-03-15T08:02:26.229120","MEAN_MOTION":13.51005722,"ECCENTRICITY":0.00171622,"INCLINATION":88.9679,"RA_OF_ASC_NODE":93.5098,"ARG_OF_PERICENTER":78.7502,"MEAN_ANOMALY":281.5577,"EPHEMERIS_TYPE":0,"CLASSIFICATION_TYPE":"U","NORAD_CAT_ID":62798,"ELEMENT_SET_NO":999,"REV_AT_EPOCH":5974,"BSTAR":6.3421284e-5,"MEAN_MOTION_DOT":5.3e-7,"MEAN_MOTION_DDOT":0}]
